[
    {
        "Altitude(m)": 604221.1931546318,
        "Argument of Periapsis(deg)": 0.0,
        "Eccentricity": 0.0,
        "Inclination(deg)": 60.0,
        "Latitude(deg)": 14.117182140555025,
        "Longitude(deg)": -61.665860952960266,
        "Mean Anomaly(deg)": 16.363600000000005,
        "RAAN(deg)": 30.0,
        "Satellite Name": "Test1 133",
        "Satellite Number": 133,
        "Semi-Major Axis(m)": 6980739.136638005,
        "Time(s)": 0
    },
    {
        "Altitude(m)": 604235.3337354711,
        "Argument of Periapsis(deg)": 0.00010418945913296404,
        "Eccentricity": 0.0,
        "Inclination(deg)": 60.0,
        "Latitude(deg)": 14.651579207417763,
        "Longitude(deg)": -61.37741467456987,
        "Mean Anomaly(deg)": 16.98370614546183,
        "RAAN(deg)": 29.99957995086026,
        "Satellite Name": "Test1 133",
        "Satellite Number": 133,
        "Semi-Major Axis(m)": 6980739.136638005,
        "Time(s)": 10
    }
]